[
  {
    "OBJECT_NAME": "STARLINK-1132",
    "OBJECT_ID": "20006A",
    "EPOCH": "2025-11-10T15:02:51.814176",
    "MEAN_MOTION": 15.06418879,
    "ECCENTRICITY": 0.0001149,
    "INCLINATION": 53.0536,
    "RA_OF_ASC_NODE": 81.112,
    "ARG_OF_PERICENTER": 95.9327,
    "MEAN_ANOMALY": 264.1793,
    "EPHEMERIS_TYPE": 0,
    "CLASSIFICATION_TYPE": "U",
    "NORAD_CAT_ID": 45044,
    "ELEMENT_SET_NO": 999,
    "REV_AT_EPOCH": 31879,
    "BSTAR": 0.00040735,
    "MEAN_MOTION_DOT": 5.794e-05,
    "MEAN_MOTION_DDOT": 0.0,
    "TLE_LINE1": "1 45044U 20006A   25314.62698859  .00005794  00000+0  40735-3 0  9999",
    "TLE_LINE2": "2 45044  53.0536  81.1120 0001149  95.9327 264.1793 15.06418879318793",
    "COMMENT": "Grouped by shell and plane from TLE"
  },
  {
    "OBJECT_NAME": "STARLINK-1133",
    "OBJECT_ID": "20006W",
    "EPOCH": "2025-11-10T08:08:51.858240",
    "MEAN_MOTION": 15.06394117,
    "ECCENTRICITY": 0.0001082,
    "INCLINATION": 53.0538,
    "RA_OF_ASC_NODE": 82.3981,
    "ARG_OF_PERICENTER": 81.0044,
    "MEAN_ANOMALY": 279.1067,
    "EPHEMERIS_TYPE": 0,
    "CLASSIFICATION_TYPE": "U",
    "NORAD_CAT_ID": 45064,
    "ELEMENT_SET_NO": 999,
    "REV_AT_EPOCH": 31875,
    "BSTAR": 0.0,
    "MEAN_MOTION_DOT": -6.44e-06,
    "MEAN_MOTION_DDOT": 0.0,
    "TLE_LINE1": "1 45064U 20006W   25314.33948910 -.00000644  00000+0 -24355-4 0  9997",
    "TLE_LINE2": "2 45064  53.0538  82.3981 0001082  81.0044 279.1067 15.06394117318757",
    "COMMENT": "Grouped by shell and plane from TLE"
  },
  {
    "OBJECT_NAME": "STARLINK-1167",
    "OBJECT_ID": "20006AD",
    "EPOCH": "2025-11-10T08:46:01.360128",
    "MEAN_MOTION": 15.06403217,
    "ECCENTRICITY": 0.0001363,
    "INCLINATION": 53.0558,
    "RA_OF_ASC_NODE": 82.2862,
    "ARG_OF_PERICENTER": 81.5187,
    "MEAN_ANOMALY": 278.5956,
    "EPHEMERIS_TYPE": 0,
    "CLASSIFICATION_TYPE": "U",
    "NORAD_CAT_ID": 45071,
    "ELEMENT_SET_NO": 999,
    "REV_AT_EPOCH": 31875,
    "BSTAR": 9.598100000000001e-05,
    "MEAN_MOTION_DOT": 1.149e-05,
    "MEAN_MOTION_DDOT": 0.0,
    "TLE_LINE1": "1 45071U 20006AD  25314.36529352  .00001149  00000+0  95981-4 0  9995",
    "TLE_LINE2": "2 45071  53.0558  82.2862 0001363  81.5187 278.5956 15.06403217318751",
    "COMMENT": "Grouped by shell and plane from TLE"
  },
  {
    "OBJECT_NAME": "STARLINK-1153",
    "OBJECT_ID": "20006AN",
    "EPOCH": "2025-11-10T18:08:37.975776",
    "MEAN_MOTION": 15.06402219,
    "ECCENTRICITY": 0.000235,
    "INCLINATION": 53.0548,
    "RA_OF_ASC_NODE": 80.5317,
    "ARG_OF_PERICENTER": 96.5713,
    "MEAN_ANOMALY": 263.5544,
    "EPHEMERIS_TYPE": 0,
    "CLASSIFICATION_TYPE": "U",
    "NORAD_CAT_ID": 45080,
    "ELEMENT_SET_NO": 999,
    "REV_AT_EPOCH": 31881,
    "BSTAR": 8.7661e-05,
    "MEAN_MOTION_DOT": 1.024e-05,
    "MEAN_MOTION_DDOT": 0.0,
    "TLE_LINE1": "1 45080U 20006AN  25314.75599509  .00001024  00000+0  87661-4 0  9997",
    "TLE_LINE2": "2 45080  53.0548  80.5317 0002350  96.5713 263.5544 15.06402219318819",
    "COMMENT": "Grouped by shell and plane from TLE"
  },
  {
    "OBJECT_NAME": "STARLINK-1623",
    "OBJECT_ID": "20057N",
    "EPOCH": "2025-11-11T02:10:19.083360",
    "MEAN_MOTION": 15.06407404,
    "ECCENTRICITY": 0.0001453,
    "INCLINATION": 53.0501,
    "RA_OF_ASC_NODE": 89.03,
    "ARG_OF_PERICENTER": 83.902,
    "MEAN_ANOMALY": 276.2135,
    "EPHEMERIS_TYPE": 0,
    "CLASSIFICATION_TYPE": "U",
    "NORAD_CAT_ID": 46129,
    "ELEMENT_SET_NO": 999,
    "REV_AT_EPOCH": 28875,
    "BSTAR": 0.00014856,
    "MEAN_MOTION_DOT": 1.932e-05,
    "MEAN_MOTION_DDOT": 0.0,
    "TLE_LINE1": "1 46129U 20057N   25315.09049865  .00001932  00000+0  14856-3 0  9994",
    "TLE_LINE2": "2 46129  53.0501  89.0300 0001453  83.9020 276.2135 15.06407404288750",
    "COMMENT": "Grouped by shell and plane from TLE"
  },
  {
    "OBJECT_NAME": "STARLINK-2342",
    "OBJECT_ID": "21021Z",
    "EPOCH": "2025-11-11T01:43:46.461792",
    "MEAN_MOTION": 15.0638333,
    "ECCENTRICITY": 9.42e-05,
    "INCLINATION": 53.0544,
    "RA_OF_ASC_NODE": 89.1139,
    "ARG_OF_PERICENTER": 103.5415,
    "MEAN_ANOMALY": 256.5679,
    "EPHEMERIS_TYPE": 0,
    "CLASSIFICATION_TYPE": "U",
    "NORAD_CAT_ID": 47883,
    "ELEMENT_SET_NO": 999,
    "REV_AT_EPOCH": 25841,
    "BSTAR": 0.0,
    "MEAN_MOTION_DOT": -4.502e-05,
    "MEAN_MOTION_DDOT": 0.0,
    "TLE_LINE1": "1 47883U 21021Z   25315.07206553 -.00004502  00000+0 -28366-3 0  9990",
    "TLE_LINE2": "2 47883  53.0544  89.1139 0000942 103.5415 256.5679 15.06383330258410",
    "COMMENT": "Grouped by shell and plane from TLE"
  },
  {
    "OBJECT_NAME": "STARLINK-2354",
    "OBJECT_ID": "21021AL",
    "EPOCH": "2025-11-11T01:41:47.520960",
    "MEAN_MOTION": 15.06392155,
    "ECCENTRICITY": 0.0001106,
    "INCLINATION": 53.0553,
    "RA_OF_ASC_NODE": 84.1212,
    "ARG_OF_PERICENTER": 95.6314,
    "MEAN_ANOMALY": 264.4801,
    "EPHEMERIS_TYPE": 0,
    "CLASSIFICATION_TYPE": "U",
    "NORAD_CAT_ID": 47894,
    "ELEMENT_SET_NO": 999,
    "REV_AT_EPOCH": 25826,
    "BSTAR": 0.00016254,
    "MEAN_MOTION_DOT": 2.14e-05,
    "MEAN_MOTION_DDOT": 0.0,
    "TLE_LINE1": "1 47894U 21021AL  25315.07068890  .00002140  00000+0  16254-3 0  9999",
    "TLE_LINE2": "2 47894  53.0553  84.1212 0001106  95.6314 264.4801 15.06392155258264",
    "COMMENT": "Grouped by shell and plane from TLE"
  },
  {
    "OBJECT_NAME": "STARLINK-2355",
    "OBJECT_ID": "21021AM",
    "EPOCH": "2025-11-11T01:57:43.314048",
    "MEAN_MOTION": 15.06393938,
    "ECCENTRICITY": 0.0001322,
    "INCLINATION": 53.0553,
    "RA_OF_ASC_NODE": 84.0716,
    "ARG_OF_PERICENTER": 88.3546,
    "MEAN_ANOMALY": 271.7594,
    "EPHEMERIS_TYPE": 0,
    "CLASSIFICATION_TYPE": "U",
    "NORAD_CAT_ID": 47895,
    "ELEMENT_SET_NO": 999,
    "REV_AT_EPOCH": 25829,
    "BSTAR": 0.00021297,
    "MEAN_MOTION_DOT": 2.892e-05,
    "MEAN_MOTION_DDOT": 0.0,
    "TLE_LINE1": "1 47895U 21021AM  25315.08175132  .00002892  00000+0  21297-3 0  9996",
    "TLE_LINE2": "2 47895  53.0553  84.0716 0001322  88.3546 271.7594 15.06393938258292",
    "COMMENT": "Grouped by shell and plane from TLE"
  },
  {
    "OBJECT_NAME": "STARLINK-2358",
    "OBJECT_ID": "21021AQ",
    "EPOCH": "2025-11-11T01:47:06.254880",
    "MEAN_MOTION": 15.06404827,
    "ECCENTRICITY": 0.0001029,
    "INCLINATION": 53.052,
    "RA_OF_ASC_NODE": 84.1038,
    "ARG_OF_PERICENTER": 80.9803,
    "MEAN_ANOMALY": 279.1302,
    "EPHEMERIS_TYPE": 0,
    "CLASSIFICATION_TYPE": "U",
    "NORAD_CAT_ID": 47898,
    "ELEMENT_SET_NO": 999,
    "REV_AT_EPOCH": 25826,
    "BSTAR": 0.00025457,
    "MEAN_MOTION_DOT": 3.513e-05,
    "MEAN_MOTION_DDOT": 0.0,
    "TLE_LINE1": "1 47898U 21021AQ  25315.07437795  .00003513  00000+0  25457-3 0  9997",
    "TLE_LINE2": "2 47898  53.0520  84.1038 0001029  80.9803 279.1302 15.06404827258261",
    "COMMENT": "Grouped by shell and plane from TLE"
  },
  {
    "OBJECT_NAME": "STARLINK-2370",
    "OBJECT_ID": "21021BC",
    "EPOCH": "2025-11-11T01:52:26.531904",
    "MEAN_MOTION": 15.06410565,
    "ECCENTRICITY": 0.0001125,
    "INCLINATION": 53.0551,
    "RA_OF_ASC_NODE": 84.2468,
    "ARG_OF_PERICENTER": 105.1004,
    "MEAN_ANOMALY": 255.0109,
    "EPHEMERIS_TYPE": 0,
    "CLASSIFICATION_TYPE": "U",
    "NORAD_CAT_ID": 47910,
    "ELEMENT_SET_NO": 999,
    "REV_AT_EPOCH": 25832,
    "BSTAR": 0.00024539,
    "MEAN_MOTION_DOT": 3.377e-05,
    "MEAN_MOTION_DDOT": 0.0,
    "TLE_LINE1": "1 47910U 21021BC  25315.07808486  .00003377  00000+0  24539-3 0  9999",
    "TLE_LINE2": "2 47910  53.0551  84.2468 0001125 105.1004 255.0109 15.06410565258329",
    "COMMENT": "Grouped by shell and plane from TLE"
  },
  {
    "OBJECT_NAME": "STARLINK-4015",
    "OBJECT_ID": "22052U",
    "EPOCH": "2025-11-11T07:33:49.736736",
    "MEAN_MOTION": 15.08841365,
    "ECCENTRICITY": 0.0001231,
    "INCLINATION": 53.2163,
    "RA_OF_ASC_NODE": 80.5228,
    "ARG_OF_PERICENTER": 91.1757,
    "MEAN_ANOMALY": 268.9377,
    "EPHEMERIS_TYPE": 0,
    "CLASSIFICATION_TYPE": "U",
    "NORAD_CAT_ID": 52616,
    "ELEMENT_SET_NO": 999,
    "REV_AT_EPOCH": 19312,
    "BSTAR": 5.7359000000000004e-05,
    "MEAN_MOTION_DOT": 6.25e-06,
    "MEAN_MOTION_DDOT": 0.0,
    "TLE_LINE1": "1 52616U 22052U   25315.31515899  .00000625  00000+0  57359-4 0  9993",
    "TLE_LINE2": "2 52616  53.2163  80.5228 0001231  91.1757 268.9377 15.08841365193123",
    "COMMENT": "Grouped by shell and plane from TLE"
  },
  {
    "OBJECT_NAME": "STARLINK-3996",
    "OBJECT_ID": "22052V",
    "EPOCH": "2025-11-11T07:23:13.519104",
    "MEAN_MOTION": 15.08840004,
    "ECCENTRICITY": 0.0001182,
    "INCLINATION": 53.2142,
    "RA_OF_ASC_NODE": 80.5569,
    "ARG_OF_PERICENTER": 94.9623,
    "MEAN_ANOMALY": 265.1505,
    "EPHEMERIS_TYPE": 0,
    "CLASSIFICATION_TYPE": "U",
    "NORAD_CAT_ID": 52617,
    "ELEMENT_SET_NO": 999,
    "REV_AT_EPOCH": 19311,
    "BSTAR": 0.00011522000000000001,
    "MEAN_MOTION_DOT": 1.546e-05,
    "MEAN_MOTION_DDOT": 0.0,
    "TLE_LINE1": "1 52617U 22052V   25315.30779536  .00001546  00000+0  11522-3 0  9997",
    "TLE_LINE2": "2 52617  53.2142  80.5569 0001182  94.9623 265.1505 15.08840004193117",
    "COMMENT": "Grouped by shell and plane from TLE"
  },
  {
    "OBJECT_NAME": "STARLINK-3983",
    "OBJECT_ID": "22052W",
    "EPOCH": "2025-11-11T07:28:31.603296",
    "MEAN_MOTION": 15.08841606,
    "ECCENTRICITY": 0.0001257,
    "INCLINATION": 53.2148,
    "RA_OF_ASC_NODE": 80.5392,
    "ARG_OF_PERICENTER": 86.2581,
    "MEAN_ANOMALY": 273.8555,
    "EPHEMERIS_TYPE": 0,
    "CLASSIFICATION_TYPE": "U",
    "NORAD_CAT_ID": 52618,
    "ELEMENT_SET_NO": 999,
    "REV_AT_EPOCH": 19311,
    "BSTAR": 8.456400000000001e-06,
    "MEAN_MOTION_DOT": -1.53e-06,
    "MEAN_MOTION_DDOT": 0.0,
    "TLE_LINE1": "1 52618U 22052W   25315.31147689 -.00000153  00000+0  84564-5 0  9999",
    "TLE_LINE2": "2 52618  53.2148  80.5392 0001257  86.2581 273.8555 15.08841606193118",
    "COMMENT": "Grouped by shell and plane from TLE"
  }
]